[{"OBJECT_NAME":"METEOSAT-11 (MSG-4)","OBJECT_ID":"2015-034A","EPOCH":"2026-04-26T22:10:07.757760","MEAN_MOTION":1.00264171,"ECCENTRICITY":0.00015928,"INCLINATION":3.0735,"RA_OF_ASC_NODE":71.3747,"ARG_OF_PERICENTER":344.6957,"MEAN_ANOMALY":140.953,"EPHEMERIS_TYPE":0,"CLASSIFICATION_TYPE":"U","NORAD_CAT_ID":40732,"ELEMENT_SET_NO":999,"REV_AT_EPOCH":670,"BSTAR":0,"MEAN_MOTION_DOT":5.4e-7,"MEAN_MOTION_DDOT":0},{"OBJECT_NAME":"ELEKTRO-L 2","OBJECT_ID":"2015-074A","EPOCH":"2026-04-26T16:55:13.729728","MEAN_MOTION":1.00270591,"ECCENTRICITY":0.00022876,"INCLINATION":6.5672,"RA_OF_ASC_NODE":71.143,"ARG_OF_PERICENTER":255.9887,"MEAN_ANOMALY":126.8673,"EPHEMERIS_TYPE":0,"CLASSIFICATION_TYPE":"U","NORAD_CAT_ID":41105,"ELEMENT_SET_NO":999,"REV_AT_EPOCH":3799,"BSTAR":0,"MEAN_MOTION_DOT":-1.24e-6,"MEAN_MOTION_DDOT":0},{"OBJECT_NAME":"INSAT-3DR","OBJECT_ID":"2016-054A","EPOCH":"2026-04-26T23:14:27.383136","MEAN_MOTION":1.0027158,"ECCENTRICITY":0.00115781,"INCLINATION":0.1155,"RA_OF_ASC_NODE":86.2537,"ARG_OF_PERICENTER":195.0845,"MEAN_ANOMALY":356.2288,"EPHEMERIS_TYPE":0,"CLASSIFICATION_TYPE":"U","NORAD_CAT_ID":41752,"ELEMENT_SET_NO":999,"REV_AT_EPOCH":3530,"BSTAR":0,"MEAN_MOTION_DOT":-8.8e-7,"MEAN_MOTION_DDOT":0},{"OBJECT_NAME":"HIMAWARI-9","OBJECT_ID":"2016-064A","EPOCH":"2026-04-26T14:14:14.168256","MEAN_MOTION":1.00272038,"ECCENTRICITY":8.61e-5,"INCLINATION":0.0377,"RA_OF_ASC_NODE":124.5813,"ARG_OF_PERICENTER":283.3117,"MEAN_ANOMALY":161.0242,"EPHEMERIS_TYPE":0,"CLASSIFICATION_TYPE":"U","NORAD_CAT_ID":41836,"ELEMENT_SET_NO":999,"REV_AT_EPOCH":3469,"BSTAR":0,"MEAN_MOTION_DOT":-2.87e-6,"MEAN_MOTION_DDOT":0},{"OBJECT_NAME":"GOES 16","OBJECT_ID":"2016-071A","EPOCH":"2026-04-26T21:37:33.381984","MEAN_MOTION":1.00271206,"ECCENTRICITY":0.00014998,"INCLINATION":0.213,"RA_OF_ASC_NODE":85.2891,"ARG_OF_PERICENTER":251.0284,"MEAN_ANOMALY":98.2535,"EPHEMERIS_TYPE":0,"CLASSIFICATION_TYPE":"U","NORAD_CAT_ID":41866,"ELEMENT_SET_NO":999,"REV_AT_EPOCH":3458,"BSTAR":0,"MEAN_MOTION_DOT":-1.02e-6,"MEAN_MOTION_DDOT":0},{"OBJECT_NAME":"FENGYUN 4A","OBJECT_ID":"2016-077A","EPOCH":"2026-04-26T22:42:42.134400","MEAN_MOTION":1.00266708,"ECCENTRICITY":0.00081143,"INCLINATION":2.1949,"RA_OF_ASC_NODE":80.7916,"ARG_OF_PERICENTER":141.1904,"MEAN_ANOMALY":97.3367,"EPHEMERIS_TYPE":0,"CLASSIFICATION_TYPE":"U","NORAD_CAT_ID":41882,"ELEMENT_SET_NO":999,"REV_AT_EPOCH":3441,"BSTAR":0,"MEAN_MOTION_DOT":-3.66e-6,"MEAN_MOTION_DDOT":0},{"OBJECT_NAME":"CYGFM05","OBJECT_ID":"2016-078A","EPOCH":"2026-04-26T18:32:15.622656","MEAN_MOTION":15.54430714,"ECCENTRICITY":0.0007165,"INCLINATION":34.957,"RA_OF_ASC_NODE":240.4619,"ARG_OF_PERICENTER":24.1347,"MEAN_ANOMALY":335.9711,"EPHEMERIS_TYPE":0,"CLASSIFICATION_TYPE":"U","NORAD_CAT_ID":41884,"ELEMENT_SET_NO":999,"REV_AT_EPOCH":52074,"BSTAR":0.00035905243,"MEAN_MOTION_DOT":0.00024406,"MEAN_MOTION_DDOT":0},{"OBJECT_NAME":"CYGFM04","OBJECT_ID":"2016-078B","EPOCH":"2026-04-26T15:16:31.969632","MEAN_MOTION":15.58659522,"ECCENTRICITY":0.00060487,"INCLINATION":34.9326,"RA_OF_ASC_NODE":211.4734,"ARG_OF_PERICENTER":69.7373,"MEAN_ANOMALY":290.4001,"EPHEMERIS_TYPE":0,"CLASSIFICATION_TYPE":"U","NORAD_CAT_ID":41885,"ELEMENT_SET_NO":999,"REV_AT_EPOCH":52094,"BSTAR":0.00041410503,"MEAN_MOTION_DOT":0.00033003,"MEAN_MOTION_DDOT":0},{"OBJECT_NAME":"CYGFM02","OBJECT_ID":"2016-078C","EPOCH":"2026-04-26T15:50:24.051840","MEAN_MOTION":15.61017103,"ECCENTRICITY":0.00071466,"INCLINATION":34.9407,"RA_OF_ASC_NODE":207.1678,"ARG_OF_PERICENTER":71.056,"MEAN_ANOMALY":289.0939,"EPHEMERIS_TYPE":0,"CLASSIFICATION_TYPE":"U","NORAD_CAT_ID":41886,"ELEMENT_SET_NO":999,"REV_AT_EPOCH":52110,"BSTAR":0.00042980671,"MEAN_MOTION_DOT":0.00037532,"MEAN_MOTION_DDOT":0},{"OBJECT_NAME":"CYGFM01","OBJECT_ID":"2016-078D","EPOCH":"2026-04-26T17:14:05.857440","MEAN_MOTION":15.55033742,"ECCENTRICITY":0.00069082,"INCLINATION":34.9403,"RA_OF_ASC_NODE":242.2753,"ARG_OF_PERICENTER":16.6774,"MEAN_ANOMALY":343.4176,"EPHEMERIS_TYPE":0,"CLASSIFICATION_TYPE":"U","NORAD_CAT_ID":41887,"ELEMENT_SET_NO":999,"REV_AT_EPOCH":52068,"BSTAR":0.00041047811,"MEAN_MOTION_DOT":0.0002855,"MEAN_MOTION_DDOT":0},{"OBJECT_NAME":"CYGFM08","OBJECT_ID":"2016-078E","EPOCH":"2026-04-26T16:42:14.496768","MEAN_MOTION":15.57367031,"ECCENTRICITY":0.000806,"INCLINATION":34.9432,"RA_OF_ASC_NODE":223.264,"ARG_OF_PERICENTER":49.0046,"MEAN_ANOMALY":311.1375,"EPHEMERIS_TYPE":0,"CLASSIFICATION_TYPE":"U","NORAD_CAT_ID":41888,"ELEMENT_SET_NO":999,"REV_AT_EPOCH":52093,"BSTAR":0.00042026254,"MEAN_MOTION_DOT":0.00031913,"MEAN_MOTION_DDOT":0},{"OBJECT_NAME":"CYGFM07","OBJECT_ID":"2016-078G","EPOCH":"2026-04-26T15:47:50.339328","MEAN_MOTION":15.5744571,"ECCENTRICITY":0.00064745,"INCLINATION":34.9448,"RA_OF_ASC_NODE":211.8986,"ARG_OF_PERICENTER":68.5433,"MEAN_ANOMALY":291.5981,"EPHEMERIS_TYPE":0,"CLASSIFICATION_TYPE":"U","NORAD_CAT_ID":41890,"ELEMENT_SET_NO":999,"REV_AT_EPOCH":52095,"BSTAR":0.00040621263,"MEAN_MOTION_DOT":0.00030915,"MEAN_MOTION_DDOT":0},{"OBJECT_NAME":"CYGFM03","OBJECT_ID":"2016-078H","EPOCH":"2026-04-26T15:05:59.508672","MEAN_MOTION":15.57451399,"ECCENTRICITY":0.00057836,"INCLINATION":34.9403,"RA_OF_ASC_NODE":214.0471,"ARG_OF_PERICENTER":54.5985,"MEAN_ANOMALY":305.5279,"EPHEMERIS_TYPE":0,"CLASSIFICATION_TYPE":"U","NORAD_CAT_ID":41891,"ELEMENT_SET_NO":999,"REV_AT_EPOCH":52092,"BSTAR":0.00040668391,"MEAN_MOTION_DOT":0.00030952,"MEAN_MOTION_DDOT":0},{"OBJECT_NAME":"FENGYUN 3D","OBJECT_ID":"2017-072A","EPOCH":"2026-04-26T21:53:14.906112","MEAN_MOTION":14.19727971,"ECCENTRICITY":0.00014241,"INCLINATION":99.0095,"RA_OF_ASC_NODE":90.418,"ARG_OF_PERICENTER":153.8626,"MEAN_ANOMALY":206.2621,"EPHEMERIS_TYPE":0,"CLASSIFICATION_TYPE":"U","NORAD_CAT_ID":43010,"ELEMENT_SET_NO":999,"REV_AT_EPOCH":43771,"BSTAR":5.2213554e-5,"MEAN_MOTION_DOT":6.4e-7,"MEAN_MOTION_DDOT":0},{"OBJECT_NAME":"NOAA 20 (JPSS-1)","OBJECT_ID":"2017-073A","EPOCH":"2026-04-26T21:34:40.263168","MEAN_MOTION":14.19547709,"ECCENTRICITY":0.00020926,"INCLINATION":98.7746,"RA_OF_ASC_NODE":56.8242,"ARG_OF_PERICENTER":71.9426,"MEAN_ANOMALY":288.1978,"EPHEMERIS_TYPE":0,"CLASSIFICATION_TYPE":"U","NORAD_CAT_ID":43013,"ELEMENT_SET_NO":999,"REV_AT_EPOCH":43719,"BSTAR":4.7716742e-5,"MEAN_MOTION_DOT":5.6e-7,"MEAN_MOTION_DDOT":0},{"OBJECT_NAME":"GOES 17","OBJECT_ID":"2018-022A","EPOCH":"2026-04-26T21:41:55.463424","MEAN_MOTION":1.00271991,"ECCENTRICITY":6.678e-5,"INCLINATION":0.8081,"RA_OF_ASC_NODE":86.3988,"ARG_OF_PERICENTER":276.3071,"MEAN_ANOMALY":88.1847,"EPHEMERIS_TYPE":0,"CLASSIFICATION_TYPE":"U","NORAD_CAT_ID":43226,"ELEMENT_SET_NO":999,"REV_AT_EPOCH":2991,"BSTAR":0,"MEAN_MOTION_DOT":-1.93e-6,"MEAN_MOTION_DDOT":0},{"OBJECT_NAME":"FENGYUN 2H","OBJECT_ID":"2018-050A","EPOCH":"2026-04-26T22:29:58.354944","MEAN_MOTION":1.00274308,"ECCENTRICITY":0.00017007,"INCLINATION":2.9016,"RA_OF_ASC_NODE":79.6473,"ARG_OF_PERICENTER":158.6942,"MEAN_ANOMALY":33.3427,"EPHEMERIS_TYPE":0,"CLASSIFICATION_TYPE":"U","NORAD_CAT_ID":43491,"ELEMENT_SET_NO":999,"REV_AT_EPOCH":2892,"BSTAR":0,"MEAN_MOTION_DOT":-1.38e-6,"MEAN_MOTION_DDOT":0}]
