METEOSAT-11 (MSG-4)     
1 40732U 15034A   26116.92370090  .00000054  00000+0  00000+0 0  9992
2 40732   3.0735  71.3747 0001592 344.6957 140.9530  1.00264171  6707
ELEKTRO-L 2             
1 41105U 15074A   26116.70502002 -.00000124  00000+0  00000+0 0  9996
2 41105   6.5672  71.1430 0002287 255.9887 126.8673  1.00270591 37994
INSAT-3DR               
1 41752U 16054A   26116.96837249 -.00000088  00000+0  00000+0 0  9994
2 41752   0.1155  86.2537 0011578 195.0845 356.2288  1.00271580 35307
HIMAWARI-9              
1 41836U 16064A   26116.59321954 -.00000287  00000+0  00000+0 0  9999
2 41836   0.0377 124.5813 0000861 283.3117 161.0242  1.00272038 34696
GOES 16                 
1 41866U 16071A   26116.90108081 -.00000102  00000+0  00000+0 0  9995
2 41866   0.2130  85.2891 0001499 251.0284  98.2535  1.00271206 34582
FENGYUN 4A              
1 41882U 16077A   26116.94632100 -.00000366  00000+0  00000+0 0  9999
2 41882   2.1949  80.7916 0008114 141.1904  97.3367  1.00266708 34412
CYGFM05                 
1 41884U 16078A   26116.77240304  .00024406  00000+0  35905-3 0  9990
2 41884  34.9570 240.4619 0007165  24.1347 335.9711 15.54430714520742
CYGFM04                 
1 41885U 16078B   26116.63648113  .00033003  00000+0  41411-3 0  9998
2 41885  34.9326 211.4734 0006048  69.7373 290.4001 15.58659522520944
CYGFM02                 
1 41886U 16078C   26116.66000060  .00037532  00000+0  42981-3 0  9999
2 41886  34.9407 207.1678 0007146  71.0560 289.0939 15.61017103521108
CYGFM01                 
1 41887U 16078D   26116.71812335  .00028550  00000+0  41048-3 0  9995
2 41887  34.9403 242.2753 0006908  16.6774 343.4176 15.55033742520686
CYGFM08                 
1 41888U 16078E   26116.69600112  .00031913  00000+0  42026-3 0  9995
2 41888  34.9432 223.2640 0008060  49.0046 311.1375 15.57367031520930
CYGFM07                 
1 41890U 16078G   26116.65822152  .00030915  00000+0  40621-3 0  9994
2 41890  34.9448 211.8986 0006474  68.5433 291.5981 15.57445710520956
CYGFM03                 
1 41891U 16078H   26116.62916098  .00030952  00000+0  40668-3 0  9997
2 41891  34.9403 214.0471 0005783  54.5985 305.5279 15.57451399520924
FENGYUN 3D              
1 43010U 17072A   26116.91197808  .00000064  00000+0  52214-4 0  9991
2 43010  99.0095  90.4180 0001424 153.8626 206.2621 14.19727971437715
NOAA 20 (JPSS-1)        
1 43013U 17073A   26116.89907712  .00000056  00000+0  47717-4 0  9998
2 43013  98.7746  56.8242 0002092  71.9426 288.1978 14.19547709437197
GOES 17                 
1 43226U 18022A   26116.90411416 -.00000193  00000+0  00000+0 0  9994
2 43226   0.8081  86.3988 0000667 276.3071  88.1847  1.00271991 29910
FENGYUN 2H              
1 43491U 18050A   26116.93748096 -.00000138  00000+0  00000+0 0  9998
2 43491   2.9016  79.6473 0001700 158.6942  33.3427  1.00274308 28928
